{"type": "FeatureCollection", "features": [ {"type": "Feature", "properties": {"norad_id": 41335, "name": "SENTINEL-3A", "group": "resource", "lat": -2.1172558307454445, "lon": -129.91961168589367, "alt_km": 805.8109288273363, "timestamp": "2025-12-11T08:58:26.771552+00:00", "meta": {"OBJECT_NAME": "SENTINEL-3A", "OBJECT_ID": "2016-011A", "EPOCH": "2025-12-11T04:45:27.112608", "MEAN_MOTION": 14.26745619, "ECCENTRICITY": 9.47e-05, "INCLINATION": 98.6209, "RA_OF_ASC_NODE": 50.2287, "ARG_OF_PERICENTER": 93.971, "MEAN_ANOMALY": 266.1579, "EPHEMERIS_TYPE": 0, "CLASSIFICATION_TYPE": "U", "NORAD_CAT_ID": 41335, "ELEMENT_SET_NO": 999, "REV_AT_EPOCH": 51125, "BSTAR": 0.00010457, "MEAN_MOTION_DOT": 2.09e-06, "MEAN_MOTION_DDOT": 0}, "tle": {"line1": "1 41335U 16011A   25345.19823047  .00000209  00000+0  10457-3 0  9998", "line2": "2 41335  98.6209  50.2287 0000947  93.9710 266.1579 14.26745619511250"}}, "geometry": {"type": "Point", "coordinates": [-129.91961168589367, -2.1172558307454445]}}, {"type": "Feature", "properties": {"norad_id": 41556, "name": "ZIYUAN 3-2 (ZY 3-2)", "group": "resource", "lat": -8.447896898592461, "lon": -121.54351717979125, "alt_km": 502.032508918448, "timestamp": "2025-12-11T08:58:26.771562+00:00", "meta": {"OBJECT_NAME": "ZIYUAN 3-2 (ZY 3-2)", "OBJECT_ID": "2016-033A", "EPOCH": "2025-12-11T04:59:26.097216", "MEAN_MOTION": 15.21466975, "ECCENTRICITY": 0.0012407, "INCLINATION": 97.4041, "RA_OF_ASC_NODE": 59.3999, "ARG_OF_PERICENTER": 254.8898, "MEAN_ANOMALY": 105.0965, "EPHEMERIS_TYPE": 0, "CLASSIFICATION_TYPE": "U", "NORAD_CAT_ID": 41556, "ELEMENT_SET_NO": 999, "REV_AT_EPOCH": 52940, "BSTAR": 0.00052979, "MEAN_MOTION_DOT": 0.00011873, "MEAN_MOTION_DDOT": 0}, "tle": {"line1": "1 41556U 16033A   25345.20794094  .00011873  00000+0  52979-3 0  9992", "line2": "2 41556  97.4041  59.3999 0012407 254.8898 105.0965 15.21466975529402"}}, "geometry": {"type": "Point", "coordinates": [-121.54351717979125, -8.447896898592461]}}, {"type": "Feature", "properties": {"norad_id": 41599, "name": "CARTOSAT-2C", "group": "resource", "lat": 36.16872253545886, "lon": -131.85299235904662, "alt_km": 503.5226689989131, "timestamp": "2025-12-11T08:58:26.771572+00:00", "meta": {"OBJECT_NAME": "CARTOSAT-2C", "OBJECT_ID": "2016-040A", "EPOCH": "2025-12-11T03:36:14.408928", "MEAN_MOTION": 15.19270706, "ECCENTRICITY": 0.0010907, "INCLINATION": 97.4766, "RA_OF_ASC_NODE": 42.4162, "ARG_OF_PERICENTER": 70.0952, "MEAN_ANOMALY": 290.1456, "EPHEMERIS_TYPE": 0, "CLASSIFICATION_TYPE": "U", "NORAD_CAT_ID": 41599, "ELEMENT_SET_NO": 999, "REV_AT_EPOCH": 52516, "BSTAR": 0.00038722, "MEAN_MOTION_DOT": 8.113e-05, "MEAN_MOTION_DDOT": 0}, "tle": {"line1": "1 41599U 16040A   25345.15016677  .00008113  00000+0  38722-3 0  9998", "line2": "2 41599  97.4766  42.4162 0010907  70.0952 290.1456 15.19270706525162"}}, "geometry": {"type": "Point", "coordinates": [-131.85299235904662, 36.16872253545886]}}, {"type": "Feature", "properties": {"norad_id": 41601, "name": "SKYSAT-C1", "group": "resource", "lat": 46.18361535242876, "lon": -150.19685887354328, "alt_km": 464.987180409742, "timestamp": "2025-12-11T08:58:26.771583+00:00", "meta": {"OBJECT_NAME": "SKYSAT-C1", "OBJECT_ID": "2016-040C", "EPOCH": "2025-12-11T02:07:35.122080", "MEAN_MOTION": 15.32539274, "ECCENTRICITY": 0.0002566, "INCLINATION": 96.9828, "RA_OF_ASC_NODE": 22.195, "ARG_OF_PERICENTER": 20.1228, "MEAN_ANOMALY": 340.0116, "EPHEMERIS_TYPE": 0, "CLASSIFICATION_TYPE": "U", "NORAD_CAT_ID": 41601, "ELEMENT_SET_NO": 999, "REV_AT_EPOCH": 52902, "BSTAR": 0.00042235, "MEAN_MOTION_DOT": 0.00013208, "MEAN_MOTION_DDOT": 0}, "tle": {"line1": "1 41601U 16040C   25345.08860095  .00013208  00000+0  42235-3 0  9990", "line2": "2 41601  96.9828  22.1950 0002566  20.1228 340.0116 15.32539274529023"}}, "geometry": {"type": "Point", "coordinates": [-150.19685887354328, 46.18361535242876]}}, {"type": "Feature", "properties": {"norad_id": 41603, "name": "LAPAN-A3", "group": "resource", "lat": -76.12642201751669, "lon": 13.49530959619144, "alt_km": 474.94601311729, "timestamp": "2025-12-11T08:58:26.771594+00:00", "meta": {"OBJECT_NAME": "LAPAN-A3", "OBJECT_ID": "2016-040E", "EPOCH": "2025-12-11T04:36:35.278272", "MEAN_MOTION": 15.31530408, "ECCENTRICITY": 0.0009833, "INCLINATION": 97.1433, "RA_OF_ASC_NODE": 342.8045, "ARG_OF_PERICENTER": 339.8663, "MEAN_ANOMALY": 20.219, "EPHEMERIS_TYPE": 0, "CLASSIFICATION_TYPE": "U", "NORAD_CAT_ID": 41603, "ELEMENT_SET_NO": 999, "REV_AT_EPOCH": 52602, "BSTAR": 0.00019534, "MEAN_MOTION_DOT": 5.881e-05, "MEAN_MOTION_DDOT": 0}, "tle": {"line1": "1 41603U 16040E   25345.19207498  .00005881  00000+0  19534-3 0  9990", "line2": "2 41603  97.1433 342.8045 0009833 339.8663  20.2190 15.31530408526029"}}, "geometry": {"type": "Point", "coordinates": [13.49530959619144, -76.12642201751669]}}, {"type": "Feature", "properties": {"norad_id": 41604, "name": "BIROS", "group": "resource", "lat": -0.9918171210326845, "lon": -163.3712830545791, "alt_km": 306.2061439243016, "timestamp": "2025-12-11T08:58:26.771605+00:00", "meta": {"OBJECT_NAME": "BIROS", "OBJECT_ID": "2016-040F", "EPOCH": "2025-12-11T02:10:11.449920", "MEAN_MOTION": 15.88965505, "ECCENTRICITY": 0.0003224, "INCLINATION": 97.0705, "RA_OF_ASC_NODE": 16.4571, "ARG_OF_PERICENTER": 155.3544, "MEAN_ANOMALY": 204.7884, "EPHEMERIS_TYPE": 0, "CLASSIFICATION_TYPE": "U", "NORAD_CAT_ID": 41604, "ELEMENT_SET_NO": 999, "REV_AT_EPOCH": 52846, "BSTAR": 0.00075595, "MEAN_MOTION_DOT": 0.0021286, "MEAN_MOTION_DDOT": 1.8142e-05}, "tle": {"line1": "1 41604U 16040F   25345.09041030  .00212860  18142-4  75595-3 0  9995", "line2": "2 41604  97.0705  16.4571 0003224 155.3544 204.7884 15.88965505528467"}}, "geometry": {"type": "Point", "coordinates": [-163.3712830545791, -0.9918171210326845]}}, {"type": "Feature", "properties": {"norad_id": 41727, "name": "GAOFEN-3", "group": "resource", "lat": 41.56662829299899, "lon": 178.51390164206452, "alt_km": 747.5563527675095, "timestamp": "2025-12-11T08:58:26.771615+00:00", "meta": {"OBJECT_NAME": "GAOFEN-3", "OBJECT_ID": "2016-049A", "EPOCH": "2025-12-11T05:00:26.307648", "MEAN_MOTION": 14.42212849, "ECCENTRICITY": 0.0001461, "INCLINATION": 98.4041, "RA_OF_ASC_NODE": 350.8179, "ARG_OF_PERICENTER": 63.5064, "MEAN_ANOMALY": 296.6275, "EPHEMERIS_TYPE": 0, "CLASSIFICATION_TYPE": "U", "NORAD_CAT_ID": 41727, "ELEMENT_SET_NO": 999, "REV_AT_EPOCH": 49155, "BSTAR": 5.2362e-05, "MEAN_MOTION_DOT": 1.29e-06, "MEAN_MOTION_DDOT": 0}, "tle": {"line1": "1 41727U 16049A   25345.20863782  .00000129  00000+0  52362-4 0  9999", "line2": "2 41727  98.4041 350.8179 0001461  63.5064 296.6275 14.42212849491556"}}, "geometry": {"type": "Point", "coordinates": [178.51390164206452, 41.56662829299899]}}, {"type": "Feature", "properties": {"norad_id": 41771, "name": "SKYSAT-C4", "group": "resource", "lat": 20.822884520263827, "lon": 7.973073736693338, "alt_km": 440.0815168747531, "timestamp": "2025-12-11T08:58:26.771626+00:00", "meta": {"OBJECT_NAME": "SKYSAT-C4", "OBJECT_ID": "2016-058B", "EPOCH": "2025-12-11T01:05:49.291296", "MEAN_MOTION": 15.42167765, "ECCENTRICITY": 0.0001348, "INCLINATION": 96.9378, "RA_OF_ASC_NODE": 10.3152, "ARG_OF_PERICENTER": 134.0132, "MEAN_ANOMALY": 226.1227, "EPHEMERIS_TYPE": 0, "CLASSIFICATION_TYPE": "U", "NORAD_CAT_ID": 41771, "ELEMENT_SET_NO": 999, "REV_AT_EPOCH": 51641, "BSTAR": 0.00048523, "MEAN_MOTION_DOT": 0.00020747, "MEAN_MOTION_DDOT": 0}, "tle": {"line1": "1 41771U 16058B   25345.04570939  .00020747  00000+0  48523-3 0  9990", "line2": "2 41771  96.9378  10.3152 0001348 134.0132 226.1227 15.42167765516419"}}, "geometry": {"type": "Point", "coordinates": [7.973073736693338, 20.822884520263827]}}, {"type": "Feature", "properties": {"norad_id": 41772, "name": "SKYSAT-C5", "group": "resource", "lat": -29.418832215924827, "lon": 33.19625486660265, "alt_km": 467.61478324286327, "timestamp": "2025-12-11T08:58:26.771636+00:00", "meta": {"OBJECT_NAME": "SKYSAT-C5", "OBJECT_ID": "2016-058C", "EPOCH": "2025-12-11T01:16:55.377408", "MEAN_MOTION": 15.35316112, "ECCENTRICITY": 0.0002463, "INCLINATION": 97.0761, "RA_OF_ASC_NODE": 28.8717, "ARG_OF_PERICENTER": 138.4276, "MEAN_ANOMALY": 221.7155, "EPHEMERIS_TYPE": 0, "CLASSIFICATION_TYPE": "U", "NORAD_CAT_ID": 41772, "ELEMENT_SET_NO": 999, "REV_AT_EPOCH": 51490, "BSTAR": 0.00044038, "MEAN_MOTION_DOT": 0.00015041, "MEAN_MOTION_DDOT": 0}, "tle": {"line1": "1 41772U 16058C   25345.05341872  .00015041  00000+0  44038-3 0  9992", "line2": "2 41772  97.0761  28.8717 0002463 138.4276 221.7155 15.35316112514902"}}, "geometry": {"type": "Point", "coordinates": [33.19625486660265, -29.418832215924827]}}, {"type": "Feature", "properties": {"norad_id": 41773, "name": "SKYSAT-C2", "group": "resource", "lat": -29.680310195686562, "lon": 13.99510799144259, "alt_km": 459.2206709088059, "timestamp": "2025-12-11T08:58:26.771646+00:00", "meta": {"OBJECT_NAME": "SKYSAT-C2", "OBJECT_ID": "2016-058D", "EPOCH": "2025-12-11T01:17:33.038304", "MEAN_MOTION": 15.37205771, "ECCENTRICITY": 0.0004412, "INCLINATION": 97.0366, "RA_OF_ASC_NODE": 9.6517, "ARG_OF_PERICENTER": 38.6729, "MEAN_ANOMALY": 321.4831, "EPHEMERIS_TYPE": 0, "CLASSIFICATION_TYPE": "U", "NORAD_CAT_ID": 41773, "ELEMENT_SET_NO": 999, "REV_AT_EPOCH": 51610, "BSTAR": 0.00045815, "MEAN_MOTION_DOT": 0.00016637, "MEAN_MOTION_DDOT": 0}, "tle": {"line1": "1 41773U 16058D   25345.05385461  .00016637  00000+0  45815-3 0  9991", "line2": "2 41773  97.0366   9.6517 0004412  38.6729 321.4831 15.37205771516102"}}, "geometry": {"type": "Point", "coordinates": [13.99510799144259, -29.680310195686562]}}]}